ONEWEB-0018             
1 45434U 20020L   24311.50388935  .00000314  00000+0  85063-3 0  9998
2 45434  87.8889 138.1473 0001549  81.2310 278.8993 13.11418029225602
ONEWEB-0083             
1 45435U 20020M   24311.79889561 -.00000111  00000+0 -34800-3 0  9991
2 45435  87.8891 138.0713 0001467  84.9940 275.1356 13.11419089225699
ONEWEB-0095             
1 45436U 20020N   24311.79053999 -.00000559  00000+0 -16124-2 0  9994
2 45436  87.8887 138.1042 0000851 111.9075 248.2143 13.11416849225693
ONEWEB-0092             
1 45437U 20020P   24311.76304976  .00011019  00000+0  31225-1 0  9995
2 45437  87.8836 138.0965 0001190  84.0705 276.0558 13.10961109225791
ONEWEB-0085             
1 45438U 20020Q   24311.79210870 -.00000434  00000+0 -12598-2 0  9992
2 45438  87.8890 138.0969 0001595  85.0656 275.0654 13.11419512225693
ONEWEB-0096             
1 45439U 20020R   24311.80059088 -.00000019  00000+0 -90782-4 0  9999
2 45439  87.8889 138.0641 0001761  85.6480 274.4849 13.11419963225683
ONEWEB-0037             
1 45440U 20020S   24311.55303139 -.00000524  00000+0 -15143-2 0  9999
2 45440  87.8881 138.0887 0001479  90.3739 269.7559 13.11414214225673
ONEWEB-0042             
1 45441U 20020T   24311.79028562 -.00000577  00000+0 -16633-2 0  9993
2 45441  87.8888 138.0787 0001556  86.4546 273.6760 13.11418868225686
